IRIDIUM 36              
1 24967U 97056C   24124.90036000  .00000541  00000+0  17695-3 0  9996
2 24967  86.3978 344.8936 0002010  88.4190 271.7237 14.36762722393432
IRIDIUM 39              
1 25042U 97069D   24125.54047495  .00000803  00000+0  21118-3 0  9992
2 25042  86.3961  26.2261 0016455 225.6012 134.3845 14.47896530390069
IRIDIUM 38              
1 25043U 97069E   24124.78259957  .00000596  00000+0  19368-3 0  9999
2 25043  86.3990  45.3128 0003066  50.1010 310.0457 14.37216296387139
IRIDIUM 42              
1 25077U 97077A   24124.71320537  .00000548  00000+0  18359-3 0  9997
2 25077  86.3988  51.0091 0002591  72.8502 287.2978 14.35520390382437
IRIDIUM 44              
1 25078U 97077B   24125.20921384  .00000571  00000+0  17756-3 0  9996
2 25078  86.3997  33.8285 0001032  34.3790 325.7476 14.39352299384889
IRIDIUM 45              
1 25104U 97082A   24125.07081408  .00012188  00000+0  69079-3 0  9993
2 25104  86.3751 242.9326 0163166  40.4772 320.8464 15.02145721390488
IRIDIUM 24              
1 25105U 97082B   24125.42119907  .00000669  00000+0  20151-3 0  9998
2 25105  86.3905 253.3903 0011079 358.7419   1.3750 14.41122551384575
IRIDIUM 51              
1 25262U 98018A   24125.39046651  .00008360  00000+0  39760-3 0  9995
2 25262  86.3951 252.7305 0147938 344.7737  14.9069 15.09733513385026
